ORBCOMM FM20            
1 25416U 98046D   24344.72392438  .00002408  00000+0  86205-3 0  9997
2 25416  44.9952 358.0304 0002082 295.0524  65.0107 14.36425082377017
ORBCOMM FM16            
1 25417U 98046E   24344.85704075  .00003324  00000+0  11391-2 0  9997
2 25417  44.9948 351.2579 0003156  27.7587 332.3429 14.37822299376999
ORBCOMM FM15            
1 25418U 98046F   24344.71939469  .00003309  00000+0  11415-2 0  9990
2 25418  44.9978 356.5172 0002624  24.4814 335.6158 14.37501284376977
ORBCOMM FM14            
1 25419U 98046G   24345.12778416  .00003640  00000+0  12437-2 0  9993
2 25419  44.9965 353.3128 0002343 358.5094   1.5747 14.37791001377218
ORBCOMM FM13            
1 25420U 98046H   24345.09079574  .00003111  00000+0  10920-2 0  9998
2 25420  44.9984 359.7712 0004033  17.7551 342.3437 14.36768072377167
ORBCOMM FM21            
1 25475U 98053A   24344.78306234  .00002568  00000+0  91370-3 0  9991
2 25475  45.0081  85.9519 0001624 260.6272  99.4393 14.36561548370008
ORBCOMM FM22            
1 25476U 98053B   24344.73488462  .00003510  00000+0  12111-2 0  9994
2 25476  45.0071  82.4054 0002701 302.7184  57.3403 14.37370103370002
ORBCOMM FM23            
1 25477U 98053C   24344.73329334  .00003083  00000+0  10849-2 0  9998
2 25477  45.0078  88.5211 0002048 288.1523  71.9102 14.36662101370144
