<?xml version="1.0" encoding="UTF-8"?>
<ndm xmlns:xsi="http://www.w3.org/2001/XMLSchema-instance" xsi:noNamespaceSchemaLocation="https://sanaregistry.org/r/ndmxml_unqualified/ndmxml-2.0.0-master-2.0.xsd">
<omm id="CCSDS_OMM_VERS" version="2.0">
<header><CREATION_DATE/><ORIGINATOR/></header><body><segment><metadata><OBJECT_NAME>ORBCOMM FM20</OBJECT_NAME><OBJECT_ID>1998-046D</OBJECT_ID><CENTER_NAME>EARTH</CENTER_NAME><REF_FRAME>TEME</REF_FRAME><TIME_SYSTEM>UTC</TIME_SYSTEM><MEAN_ELEMENT_THEORY>SGP4</MEAN_ELEMENT_THEORY></metadata><data><meanElements><EPOCH>2024-12-09T17:22:27.066432</EPOCH><MEAN_MOTION>14.36425082</MEAN_MOTION><ECCENTRICITY>.0002082</ECCENTRICITY><INCLINATION>44.9952</INCLINATION><RA_OF_ASC_NODE>358.0304</RA_OF_ASC_NODE><ARG_OF_PERICENTER>295.0524</ARG_OF_PERICENTER><MEAN_ANOMALY>65.0107</MEAN_ANOMALY></meanElements><tleParameters><EPHEMERIS_TYPE>0</EPHEMERIS_TYPE><CLASSIFICATION_TYPE>U</CLASSIFICATION_TYPE><NORAD_CAT_ID>25416</NORAD_CAT_ID><ELEMENT_SET_NO>999</ELEMENT_SET_NO><REV_AT_EPOCH>37701</REV_AT_EPOCH><BSTAR>.86205E-3</BSTAR><MEAN_MOTION_DOT>.2408E-4</MEAN_MOTION_DOT><MEAN_MOTION_DDOT>0</MEAN_MOTION_DDOT></tleParameters></data></segment></body></omm>
<omm id="CCSDS_OMM_VERS" version="2.0">
<header><CREATION_DATE/><ORIGINATOR/></header><body><segment><metadata><OBJECT_NAME>ORBCOMM FM16</OBJECT_NAME><OBJECT_ID>1998-046E</OBJECT_ID><CENTER_NAME>EARTH</CENTER_NAME><REF_FRAME>TEME</REF_FRAME><TIME_SYSTEM>UTC</TIME_SYSTEM><MEAN_ELEMENT_THEORY>SGP4</MEAN_ELEMENT_THEORY></metadata><data><meanElements><EPOCH>2024-12-09T20:34:08.320800</EPOCH><MEAN_MOTION>14.37822299</MEAN_MOTION><ECCENTRICITY>.0003156</ECCENTRICITY><INCLINATION>44.9948</INCLINATION><RA_OF_ASC_NODE>351.2579</RA_OF_ASC_NODE><ARG_OF_PERICENTER>27.7587</ARG_OF_PERICENTER><MEAN_ANOMALY>332.3429</MEAN_ANOMALY></meanElements><tleParameters><EPHEMERIS_TYPE>0</EPHEMERIS_TYPE><CLASSIFICATION_TYPE>U</CLASSIFICATION_TYPE><NORAD_CAT_ID>25417</NORAD_CAT_ID><ELEMENT_SET_NO>999</ELEMENT_SET_NO><REV_AT_EPOCH>37699</REV_AT_EPOCH><BSTAR>.11391E-2</BSTAR><MEAN_MOTION_DOT>.3324E-4</MEAN_MOTION_DOT><MEAN_MOTION_DDOT>0</MEAN_MOTION_DDOT></tleParameters></data></segment></body></omm>
<omm id="CCSDS_OMM_VERS" version="2.0">
<header><CREATION_DATE/><ORIGINATOR/></header><body><segment><metadata><OBJECT_NAME>ORBCOMM FM15</OBJECT_NAME><OBJECT_ID>1998-046F</OBJECT_ID><CENTER_NAME>EARTH</CENTER_NAME><REF_FRAME>TEME</REF_FRAME><TIME_SYSTEM>UTC</TIME_SYSTEM><MEAN_ELEMENT_THEORY>SGP4</MEAN_ELEMENT_THEORY></metadata><data><meanElements><EPOCH>2024-12-09T17:15:55.701216</EPOCH><MEAN_MOTION>14.37501284</MEAN_MOTION><ECCENTRICITY>.0002624</ECCENTRICITY><INCLINATION>44.9978</INCLINATION><RA_OF_ASC_NODE>356.5172</RA_OF_ASC_NODE><ARG_OF_PERICENTER>24.4814</ARG_OF_PERICENTER><MEAN_ANOMALY>335.6158</MEAN_ANOMALY></meanElements><tleParameters><EPHEMERIS_TYPE>0</EPHEMERIS_TYPE><CLASSIFICATION_TYPE>U</CLASSIFICATION_TYPE><NORAD_CAT_ID>25418</NORAD_CAT_ID><ELEMENT_SET_NO>999</ELEMENT_SET_NO><REV_AT_EPOCH>37697</REV_AT_EPOCH><BSTAR>.11415E-2</BSTAR><MEAN_MOTION_DOT>.3309E-4</MEAN_MOTION_DOT><MEAN_MOTION_DDOT>0</MEAN_MOTION_DDOT></tleParameters></data></segment></body></omm>
<omm id="CCSDS_OMM_VERS" version="2.0">
<header><CREATION_DATE/><ORIGINATOR/></header><body><segment><metadata><OBJECT_NAME>ORBCOMM FM14</OBJECT_NAME><OBJECT_ID>1998-046G</OBJECT_ID><CENTER_NAME>EARTH</CENTER_NAME><REF_FRAME>TEME</REF_FRAME><TIME_SYSTEM>UTC</TIME_SYSTEM><MEAN_ELEMENT_THEORY>SGP4</MEAN_ELEMENT_THEORY></metadata><data><meanElements><EPOCH>2024-12-10T03:04:00.551424</EPOCH><MEAN_MOTION>14.37791001</MEAN_MOTION><ECCENTRICITY>.0002343</ECCENTRICITY><INCLINATION>44.9965</INCLINATION><RA_OF_ASC_NODE>353.3128</RA_OF_ASC_NODE><ARG_OF_PERICENTER>358.5094</ARG_OF_PERICENTER><MEAN_ANOMALY>1.5747</MEAN_ANOMALY></meanElements><tleParameters><EPHEMERIS_TYPE>0</EPHEMERIS_TYPE><CLASSIFICATION_TYPE>U</CLASSIFICATION_TYPE><NORAD_CAT_ID>25419</NORAD_CAT_ID><ELEMENT_SET_NO>999</ELEMENT_SET_NO><REV_AT_EPOCH>37721</REV_AT_EPOCH><BSTAR>.12437E-2</BSTAR><MEAN_MOTION_DOT>.364E-4</MEAN_MOTION_DOT><MEAN_MOTION_DDOT>0</MEAN_MOTION_DDOT></tleParameters></data></segment></body></omm>
<omm id="CCSDS_OMM_VERS" version="2.0">
<header><CREATION_DATE/><ORIGINATOR/></header><body><segment><metadata><OBJECT_NAME>ORBCOMM FM13</OBJECT_NAME><OBJECT_ID>1998-046H</OBJECT_ID><CENTER_NAME>EARTH</CENTER_NAME><REF_FRAME>TEME</REF_FRAME><TIME_SYSTEM>UTC</TIME_SYSTEM><MEAN_ELEMENT_THEORY>SGP4</MEAN_ELEMENT_THEORY></metadata><data><meanElements><EPOCH>2024-12-10T02:10:44.751936</EPOCH><MEAN_MOTION>14.36768072</MEAN_MOTION><ECCENTRICITY>.0004033</ECCENTRICITY><INCLINATION>44.9984</INCLINATION><RA_OF_ASC_NODE>359.7712</RA_OF_ASC_NODE><ARG_OF_PERICENTER>17.7551</ARG_OF_PERICENTER><MEAN_ANOMALY>342.3437</MEAN_ANOMALY></meanElements><tleParameters><EPHEMERIS_TYPE>0</EPHEMERIS_TYPE><CLASSIFICATION_TYPE>U</CLASSIFICATION_TYPE><NORAD_CAT_ID>25420</NORAD_CAT_ID><ELEMENT_SET_NO>999</ELEMENT_SET_NO><REV_AT_EPOCH>37716</REV_AT_EPOCH><BSTAR>.1092E-2</BSTAR><MEAN_MOTION_DOT>.3111E-4</MEAN_MOTION_DOT><MEAN_MOTION_DDOT>0</MEAN_MOTION_DDOT></tleParameters></data></segment></body></omm>
<omm id="CCSDS_OMM_VERS" version="2.0">
<header><CREATION_DATE/><ORIGINATOR/></header><body><segment><metadata><OBJECT_NAME>ORBCOMM FM21</OBJECT_NAME><OBJECT_ID>1998-053A</OBJECT_ID><CENTER_NAME>EARTH</CENTER_NAME><REF_FRAME>TEME</REF_FRAME><TIME_SYSTEM>UTC</TIME_SYSTEM><MEAN_ELEMENT_THEORY>SGP4</MEAN_ELEMENT_THEORY></metadata><data><meanElements><EPOCH>2024-12-09T18:47:36.586176</EPOCH><MEAN_MOTION>14.36561548</MEAN_MOTION><ECCENTRICITY>.0001624</ECCENTRICITY><INCLINATION>45.0081</INCLINATION><RA_OF_ASC_NODE>85.9519</RA_OF_ASC_NODE><ARG_OF_PERICENTER>260.6272</ARG_OF_PERICENTER><MEAN_ANOMALY>99.4393</MEAN_ANOMALY></meanElements><tleParameters><EPHEMERIS_TYPE>0</EPHEMERIS_TYPE><CLASSIFICATION_TYPE>U</CLASSIFICATION_TYPE><NORAD_CAT_ID>25475</NORAD_CAT_ID><ELEMENT_SET_NO>999</ELEMENT_SET_NO><REV_AT_EPOCH>37000</REV_AT_EPOCH><BSTAR>.9137E-3</BSTAR><MEAN_MOTION_DOT>.2568E-4</MEAN_MOTION_DOT><MEAN_MOTION_DDOT>0</MEAN_MOTION_DDOT></tleParameters></data></segment></body></omm>
<omm id="CCSDS_OMM_VERS" version="2.0">
<header><CREATION_DATE/><ORIGINATOR/></header><body><segment><metadata><OBJECT_NAME>ORBCOMM FM22</OBJECT_NAME><OBJECT_ID>1998-053B</OBJECT_ID><CENTER_NAME>EARTH</CENTER_NAME><REF_FRAME>TEME</REF_FRAME><TIME_SYSTEM>UTC</TIME_SYSTEM><MEAN_ELEMENT_THEORY>SGP4</MEAN_ELEMENT_THEORY></metadata><data><meanElements><EPOCH>2024-12-09T17:38:14.031168</EPOCH><MEAN_MOTION>14.37370103</MEAN_MOTION><ECCENTRICITY>.0002701</ECCENTRICITY><INCLINATION>45.0071</INCLINATION><RA_OF_ASC_NODE>82.4054</RA_OF_ASC_NODE><ARG_OF_PERICENTER>302.7184</ARG_OF_PERICENTER><MEAN_ANOMALY>57.3403</MEAN_ANOMALY></meanElements><tleParameters><EPHEMERIS_TYPE>0</EPHEMERIS_TYPE><CLASSIFICATION_TYPE>U</CLASSIFICATION_TYPE><NORAD_CAT_ID>25476</NORAD_CAT_ID><ELEMENT_SET_NO>999</ELEMENT_SET_NO><REV_AT_EPOCH>37000</REV_AT_EPOCH><BSTAR>.12111E-2</BSTAR><MEAN_MOTION_DOT>.351E-4</MEAN_MOTION_DOT><MEAN_MOTION_DDOT>0</MEAN_MOTION_DDOT></tleParameters></data></segment></body></omm>
<omm id="CCSDS_OMM_VERS" version="2.0">
<header><CREATION_DATE/><ORIGINATOR/></header><body><segment><metadata><OBJECT_NAME>ORBCOMM FM23</OBJECT_NAME><OBJECT_ID>1998-053C</OBJECT_ID><CENTER_NAME>EARTH</CENTER_NAME><REF_FRAME>TEME</REF_FRAME><TIME_SYSTEM>UTC</TIME_SYSTEM><MEAN_ELEMENT_THEORY>SGP4</MEAN_ELEMENT_THEORY></metadata><data><meanElements><EPOCH>2024-12-09T17:35:56.544576</EPOCH><MEAN_MOTION>14.36662101</MEAN_MOTION><ECCENTRICITY>.0002048</ECCENTRICITY><INCLINATION>45.0078</INCLINATION><RA_OF_ASC_NODE>88.5211</RA_OF_ASC_NODE><ARG_OF_PERICENTER>288.1523</ARG_OF_PERICENTER><MEAN_ANOMALY>71.9102</MEAN_ANOMALY></meanElements><tleParameters><EPHEMERIS_TYPE>0</EPHEMERIS_TYPE><CLASSIFICATION_TYPE>U</CLASSIFICATION_TYPE><NORAD_CAT_ID>25477</NORAD_CAT_ID><ELEMENT_SET_NO>999</ELEMENT_SET_NO><REV_AT_EPOCH>37014</REV_AT_EPOCH><BSTAR>.10849E-2</BSTAR><MEAN_MOTION_DOT>.3083E-4</MEAN_MOTION_DOT><MEAN_MOTION_DDOT>0</MEAN_MOTION_DDOT></tleParameters></data></segment></body></omm>

</ndm>
